IRIDIUM 33 DEB          
1 38241U 97051ZR  26064.98127887  .00003050  00000+0  69584-3 0  9990
2 38241  86.3233 313.8754 0004759 113.3476 246.8233 14.55528801614116
IRIDIUM 33 DEB          
1 40996U 97051ABJ 26066.45985131  .00063892  00000+0  45408-2 0  9996
2 40996  86.3480 321.5871 0010571  86.7515  38.3180 15.04355632637588
IRIDIUM 33 DEB          
1 46965U 97051ABX 26064.63141240  .00004076  00000+0  82387-3 0  9998
2 46965  86.3330 303.9282 0020944  47.4459 342.3534 14.61027741634789
IRIDIUM 33 DEB          
1 46971U 97051ACD 26046.17100049  .00032805  00000+0  24317-2 0  9995
2 46971  86.3384 302.6959 0018324 121.5358  29.3036 15.02823090651968
IRIDIUM 33 DEB          
1 46972U 97051ACE 26044.68140226  .00002565  00000+0  64340-3 0  9992
2 46972  86.3900  12.2992 0007091 258.5659 223.6549 14.51029384624851
IRIDIUM 33 DEB          
1 46974U 97051ACG 26050.81448888  .00008465  00000+0  22535-2 0  9995
2 46974  86.2960  75.0684 0088187 318.5740  40.8797 14.46114347585067
